IRIDIUM 150             
1 43257U 18030J   25149.77013329  .00000036  00000+0  59410-5 0  9998
2 43257  86.3955  90.7647 0002552  82.9601 277.1885 14.34217642375223
IRIDIUM 143             
1 43258U 18030K   25149.54180012  .00000041  00000+0  74051-5 0  9992
2 43258  86.3957  90.9377 0002705  79.7962 280.3539 14.34217675375107
IRIDIUM 161             
1 43478U 18047C   25149.56151896  .00000435  00000+0  12325-3 0  9995
2 43478  86.4496 248.7205 0002143  99.3764 260.7679 14.43271663369801
IRIDIUM 152             
1 43479U 18047D   25149.23544316  .00000076  00000+0  20202-4 0  9998
2 43479  86.3971 248.7172 0002279  98.6779 261.4675 14.34217937367457
IRIDIUM 147             
1 43480U 18047E   25149.24178425  .00000288  00000+0  95724-4 0  9991
2 43480  86.3973 248.7130 0002071  94.4949 265.6483 14.34219168367459
IRIDIUM 110             
1 43481U 18047F   25149.03882124  .00000132  00000+0  39920-4 0  9991
2 43481  86.3975 248.8797 0001929 105.8516 254.2893 14.34218443367410
IRIDIUM 162             
1 43482U 18047G   25149.55522225  .00000423  00000+0  11967-3 0  9995
2 43482  86.4496 248.6187 0002246 103.5677 256.5774 14.43271650369792
IRIDIUM 160             
1 43569U 18061A   25149.12419507  .00000076  00000+0  19965-4 0  9999
2 43569  86.4004 217.2381 0002113  98.3708 261.7727 14.34218246358325
